SPACEMOBILE-006         
1 67232U 25309A   26132.30248352  .00001292  00000+0  77519-4 0  9996
2 67232  52.9963 135.9663 0011720  27.8897 332.2722 15.18342208 21144
